start=new Date('2022-08-14T00:00:00.000Z').valueOf();
sats=[{"PERIAPSIS":"546.289","MEAN_MOTION_DOT":"-0.00002062","CLASSIFICATION_TYPE":"U","TIME_SYSTEM":"UTC","OBJECT_ID":"2021-018T","SITE":"AFETR","RCS_SIZE":"LARGE","COUNTRY_CODE":"US","PERIOD":"95.592","TLE_LINE1":"1 47804U 21018T   22225.79792860 -.00002062  00000-0 -11956-3 0  9993","MEAN_MOTION":"15.06401811","BSTAR":"-0.00011956000000","EPOCH":"2022-08-13T19:09:01.031040","REV_AT_EPOCH":"8034","INCLINATION":"53.0549","OBJECT_TYPE":"PAYLOAD","CENTER_NAME":"EARTH","OBJECT_NAME":"STARLINK-2385","RA_OF_ASC_NODE":"325.0273","ARG_OF_PERICENTER":"81.9838","APOAPSIS":"548.127","MEAN_ANOMALY":"278.1301","SEMIMAJOR_AXIS":"6925.343","TLE_LINE2":"2 47804  53.0549 325.0273 0001327  81.9838 278.1301 15.06401811 80347","REF_FRAME":"TEME","LAUNCH_DATE":"2021-03-11","ELEMENT_SET_NO":"999","MEAN_ELEMENT_THEORY":"SGP4","FILE":"3535825","ECCENTRICITY":"0.00013270","DECAY_DATE":null,"MEAN_MOTION_DDOT":"0.0000000000000","EPHEMERIS_TYPE":"0","GP_ID":"210163585","NORAD_CAT_ID":"47804"},{"MEAN_ELEMENT_THEORY":"SGP4","ELEMENT_SET_NO":"999","LAUNCH_DATE":"2021-03-11","SEMIMAJOR_AXIS":"6925.304","TLE_LINE2":"2 47805  53.0547 325.7144 0001289  98.8897 261.2238 15.06414403 80331","REF_FRAME":"TEME","MEAN_ANOMALY":"261.2238","APOAPSIS":"548.062","ARG_OF_PERICENTER":"98.8897","RA_OF_ASC_NODE":"325.7144","CENTER_NAME":"EARTH","OBJECT_NAME":"STARLINK-2386","NORAD_CAT_ID":"47805","GP_ID":"210162333","EPHEMERIS_TYPE":"0","MEAN_MOTION_DDOT":"0.0000000000000","DECAY_DATE":null,"FILE":"3535825","ECCENTRICITY":"0.00012890","TLE_LINE1":"1 47805U 21018U   22225.69844805  .00004655  00000-0  33104-3 0  9997","MEAN_MOTION":"15.06414403","PERIOD":"95.591","RCS_SIZE":"LARGE","COUNTRY_CODE":"US","SITE":"AFETR","TIME_SYSTEM":"UTC","OBJECT_ID":"2021-018U","MEAN_MOTION_DOT":"0.00004655","CLASSIFICATION_TYPE":"U","PERIAPSIS":"546.277","INCLINATION":"53.0547","OBJECT_TYPE":"PAYLOAD","REV_AT_EPOCH":"8033","EPOCH":"2022-08-13T16:45:45.911520","BSTAR":"0.00033104000000"},{"OBJECT_TYPE":"PAYLOAD","INCLINATION":"53.0559","REV_AT_EPOCH":"8018","EPOCH":"2022-08-13T16:51:40.914432","BSTAR":"-0.00010202000000","MEAN_MOTION":"15.06397966","TLE_LINE1":"1 47806U 21018V   22225.70255688 -.00001801  00000-0 -10202-3 0  9991","PERIOD":"95.592","COUNTRY_CODE":"US","RCS_SIZE":"LARGE","SITE":"AFETR","OBJECT_ID":"2021-018V","TIME_SYSTEM":"UTC","CLASSIFICATION_TYPE":"U","MEAN_MOTION_DOT":"-0.00001801","PERIAPSIS":"546.243","NORAD_CAT_ID":"47806","GP_ID":"210163084","EPHEMERIS_TYPE":"0","MEAN_MOTION_DDOT":"0.0000000000000","DECAY_DATE":null,"ECCENTRICITY":"0.00014100","FILE":"3535825","MEAN_ELEMENT_THEORY":"SGP4","ELEMENT_SET_NO":"999","LAUNCH_DATE":"2021-03-11","TLE_LINE2":"2 47806  53.0559 340.4578 0001410 101.3490 258.7658 15.06397966 80189","REF_FRAME":"TEME","SEMIMAJOR_AXIS":"6925.355","ARG_OF_PERICENTER":"101.3490","APOAPSIS":"548.196","MEAN_ANOMALY":"258.7658","RA_OF_ASC_NODE":"340.4578","OBJECT_NAME":"STARLINK-2387","CENTER_NAME":"EARTH"},{"REV_AT_EPOCH":"8045","EPOCH":"2022-08-13T15:00:52.892352","BSTAR":"0.00002790600000","OBJECT_TYPE":"PAYLOAD","INCLINATION":"53.0551","OBJECT_ID":"2021-018W","TIME_SYSTEM":"UTC","CLASSIFICATION_TYPE":"U","MEAN_MOTION_DOT":"0.00000134","PERIAPSIS":"546.224","MEAN_MOTION":"15.06406181","TLE_LINE1":"1 47807U 21018W   22225.62561218  .00000134  00000-0  27906-4 0  9998","PERIOD":"95.592","COUNTRY_CODE":"US","RCS_SIZE":"LARGE","SITE":"AFETR","GP_ID":"210163335","EPHEMERIS_TYPE":"0","MEAN_MOTION_DDOT":"0.0000000000000","DECAY_DATE":null,"ECCENTRICITY":"0.00014020","FILE":"3535825","NORAD_CAT_ID":"47807","REF_FRAME":"TEME","TLE_LINE2":"2 47807  53.0551 315.8023 0001402  81.3931 278.7217 15.06406181 80454","SEMIMAJOR_AXIS":"6925.330","MEAN_ANOMALY":"278.7217","APOAPSIS":"548.166","ARG_OF_PERICENTER":"81.3931","RA_OF_ASC_NODE":"315.8023","CENTER_NAME":"EARTH","OBJECT_NAME":"STARLINK-2388","MEAN_ELEMENT_THEORY":"SGP4","ELEMENT_SET_NO":"999","LAUNCH_DATE":"2021-03-11"},{"PERIAPSIS":"546.328","MEAN_MOTION_DOT":"0.00002414","CLASSIFICATION_TYPE":"U","TIME_SYSTEM":"UTC","OBJECT_ID":"2021-018X","SITE":"AFETR","RCS_SIZE":"LARGE","COUNTRY_CODE":"US","PERIOD":"95.592","TLE_LINE1":"1 47808U 21018X   22225.58830035  .00002414  00000-0  18089-3 0  9994","MEAN_MOTION":"15.06401941","BSTAR":"0.00018089000000","EPOCH":"2022-08-13T14:07:09.150240","REV_AT_EPOCH":"8016","INCLINATION":"53.0557","OBJECT_TYPE":"PAYLOAD","CENTER_NAME":"EARTH","OBJECT_NAME":"STARLINK-2389","RA_OF_ASC_NODE":"340.9667","MEAN_ANOMALY":"275.3668","APOAPSIS":"548.087","ARG_OF_PERICENTER":"84.7466","SEMIMAJOR_AXIS":"6925.343","REF_FRAME":"TEME","TLE_LINE2":"2 47808  53.0557 340.9667 0001270  84.7466 275.3668 15.06401941 80167","LAUNCH_DATE":"2021-03-11","ELEMENT_SET_NO":"999","MEAN_ELEMENT_THEORY":"SGP4","FILE":"3535824","ECCENTRICITY":"0.00012700","DECAY_DATE":null,"EPHEMERIS_TYPE":"0","MEAN_MOTION_DDOT":"0.0000000000000","GP_ID":"210137877","NORAD_CAT_ID":"47808"},{"NORAD_CAT_ID":"47809","GP_ID":"210162834","MEAN_MOTION_DDOT":"0.0000000000000","EPHEMERIS_TYPE":"0","DECAY_DATE":null,"FILE":"3535825","ECCENTRICITY":"0.00019230","MEAN_ELEMENT_THEORY":"SGP4","ELEMENT_SET_NO":"999","LAUNCH_DATE":"2021-03-11","SEMIMAJOR_AXIS":"6925.369","TLE_LINE2":"2 47809  53.0568 344.7488 0001923  63.3219 296.7967 15.06393310 80133","REF_FRAME":"TEME","APOAPSIS":"548.566","MEAN_ANOMALY":"296.7967","ARG_OF_PERICENTER":"63.3219","RA_OF_ASC_NODE":"344.7488","CENTER_NAME":"EARTH","OBJECT_NAME":"STARLINK-2390","INCLINATION":"53.0568","OBJECT_TYPE":"PAYLOAD","REV_AT_EPOCH":"8013","EPOCH":"2022-08-13T20:35:14.591328","BSTAR":"-0.00010133000000","TLE_LINE1":"1 47809U 21018Y   22225.85780777 -.00001790  00000-0 -10133-3 0  9992","MEAN_MOTION":"15.06393310","PERIOD":"95.593","RCS_SIZE":"LARGE","COUNTRY_CODE":"US","SITE":"AFETR","TIME_SYSTEM":"UTC","OBJECT_ID":"2021-018Y","MEAN_MOTION_DOT":"-0.00001790","CLASSIFICATION_TYPE":"U","PERIAPSIS":"545.902"},{"BSTAR":"0.00015158000000","EPOCH":"2022-08-13T18:01:20.082432","REV_AT_EPOCH":"7997","INCLINATION":"53.0546","OBJECT_TYPE":"PAYLOAD","PERIAPSIS":"546.383","MEAN_MOTION_DOT":"0.00001977","CLASSIFICATION_TYPE":"U","TIME_SYSTEM":"UTC","OBJECT_ID":"2021-018Z","SITE":"AFETR","RCS_SIZE":"LARGE","COUNTRY_CODE":"US","PERIOD":"95.592","TLE_LINE1":"1 47810U 21018Z   22225.75092688  .00001977  00000-0  15158-3 0  9997","MEAN_MOTION":"15.06404641","FILE":"3535825","ECCENTRICITY":"0.00011790","DECAY_DATE":null,"MEAN_MOTION_DDOT":"0.0000000000000","EPHEMERIS_TYPE":"0","GP_ID":"210162584","NORAD_CAT_ID":"47810","CENTER_NAME":"EARTH","OBJECT_NAME":"STARLINK-2391","RA_OF_ASC_NODE":"355.2334","ARG_OF_PERICENTER":"95.4014","APOAPSIS":"548.016","MEAN_ANOMALY":"264.7109","SEMIMAJOR_AXIS":"6925.334","TLE_LINE2":"2 47810  53.0546 355.2334 0001179  95.4014 264.7109 15.06404641 79973","REF_FRAME":"TEME","LAUNCH_DATE":"2021-03-11","ELEMENT_SET_NO":"999","MEAN_ELEMENT_THEORY":"SGP4"},{"EPOCH":"2022-08-13T17:22:51.790656","BSTAR":"-0.00001960600000","REV_AT_EPOCH":"8039","OBJECT_TYPE":"PAYLOAD","INCLINATION":"53.0551","PERIAPSIS":"546.303","OBJECT_ID":"2021-018AA","TIME_SYSTEM":"UTC","CLASSIFICATION_TYPE":"U","MEAN_MOTION_DOT":"-0.00000573","COUNTRY_CODE":"US","RCS_SIZE":"LARGE","SITE":"AFETR","MEAN_MOTION":"15.06400939","TLE_LINE1":"1 47811U 21018AA  22225.72421054 -.00000573  00000-0 -19606-4 0  9994","PERIOD":"95.592","DECAY_DATE":null,"ECCENTRICITY":"0.00013110","FILE":"3535825","GP_ID":"210163836","MEAN_MOTION_DDOT":"0.0000000000000","EPHEMERIS_TYPE":"0","NORAD_CAT_ID":"47811","RA_OF_ASC_NODE":"325.3534","OBJECT_NAME":"STARLINK-2392","CENTER_NAME":"EARTH","REF_FRAME":"TEME","TLE_LINE2":"2 47811  53.0551 325.3534 0001311  97.4461 262.6677 15.06400939 80397","SEMIMAJOR_AXIS":"6925.346","MEAN_ANOMALY":"262.6677","APOAPSIS":"548.119","ARG_OF_PERICENTER":"97.4461","ELEMENT_SET_NO":"999","LAUNCH_DATE":"2021-03-11","MEAN_ELEMENT_THEORY":"SGP4"},{"INCLINATION":"53.0543","OBJECT_TYPE":"PAYLOAD","BSTAR":"0.00005487900000","EPOCH":"2022-08-13T18:17:16.363680","REV_AT_EPOCH":"7991","SITE":"AFETR","RCS_SIZE":"LARGE","COUNTRY_CODE":"US","PERIOD":"95.592","TLE_LINE1":"1 47812U 21018AB  22225.76199495  .00000536  00000-0  54879-4 0  9998","MEAN_MOTION":"15.06400978","PERIAPSIS":"546.245","MEAN_MOTION_DOT":"0.00000536","CLASSIFICATION_TYPE":"U","OBJECT_ID":"2021-018AB","TIME_SYSTEM":"UTC","NORAD_CAT_ID":"47812","FILE":"3535825","ECCENTRICITY":"0.00013940","DECAY_DATE":null,"EPHEMERIS_TYPE":"0","MEAN_MOTION_DDOT":"0.0000000000000","GP_ID":"210163586","LAUNCH_DATE":"2021-03-11","ELEMENT_SET_NO":"999","MEAN_ELEMENT_THEORY":"SGP4","CENTER_NAME":"EARTH","OBJECT_NAME":"STARLINK-2393","RA_OF_ASC_NODE":"355.1811","MEAN_ANOMALY":"287.5688","APOAPSIS":"548.176","ARG_OF_PERICENTER":"72.5453","SEMIMAJOR_AXIS":"6925.346","TLE_LINE2":"2 47812  53.0543 355.1811 0001394  72.5453 287.5688 15.06400978 79911","REF_FRAME":"TEME"},{"TLE_LINE1":"1 47813U 21018AC  22225.74632558  .00000174  00000-0  30565-4 0  9993","MEAN_MOTION":"15.06400943","PERIOD":"95.592","RCS_SIZE":"LARGE","COUNTRY_CODE":"US","SITE":"AFETR","OBJECT_ID":"2021-018AC","TIME_SYSTEM":"UTC","MEAN_MOTION_DOT":"0.00000174","CLASSIFICATION_TYPE":"U","PERIAPSIS":"546.303","INCLINATION":"53.0554","OBJECT_TYPE":"PAYLOAD","REV_AT_EPOCH":"8039","EPOCH":"2022-08-13T17:54:42.530112","BSTAR":"0.00003056500000","MEAN_ELEMENT_THEORY":"SGP4","ELEMENT_SET_NO":"999","LAUNCH_DATE":"2021-03-11","SEMIMAJOR_AXIS":"6925.346","TLE_LINE2":"2 47813  53.0554 325.2585 0001310  92.0096 268.1043 15.06400943 80394","REF_FRAME":"TEME","MEAN_ANOMALY":"268.1043","APOAPSIS":"548.118","ARG_OF_PERICENTER":"92.0096","RA_OF_ASC_NODE":"325.2585","CENTER_NAME":"EARTH","OBJECT_NAME":"STARLINK-2394","NORAD_CAT_ID":"47813","GP_ID":"210162334","MEAN_MOTION_DDOT":"0.0000000000000","EPHEMERIS_TYPE":"0","DECAY_DATE":null,"FILE":"3535825","ECCENTRICITY":"0.00013100"}];
